ONEWEB-0615             
1 54676U 22166AL  25311.99074529 -.00000056  00000+0 -16789-3 0  9998
2 54676  87.9175 288.1156 0001855  86.7434 273.3912 13.21826837142228
ONEWEB-0655             
1 54677U 22166AM  25312.19316220  .00000092  00000+0  19161-3 0  9994
2 54677  87.9176 288.0800 0001836  94.3966 265.7378 13.21828870142241
ONEWEB-0659             
1 54678U 22166AN  25311.98254324  .00000042  00000+0  70253-4 0  9992
2 54678  87.9176 288.1222 0001955  82.6305 277.5051 13.21827044142308
ONEWEB-0685             
1 54679U 22166AP  25311.98320299  .00000019  00000+0  13422-4 0  9997
2 54679  87.9175 288.1179 0001679  87.3814 272.7512 13.21832350142191
ONEWEB-0712             
1 54680U 22166AQ  25312.13684083  .00000015  00000+0  63073-5 0  9995
2 54680  87.9013 272.7945 0001990  98.8094 261.3262 13.16596923142976
ONEWEB-0714             
1 54681U 22166AR  25311.98909868 -.00000216  00000+0 -55412-3 0  9990
2 54681  87.9180 288.1107 0001739  90.6533 269.4800 13.21826073142315
ONEWEB-0532             
1 55140U 23004A   25311.98314330  .00000025  00000+0  30562-4 0  9993
2 55140  87.9143  49.8441 0001417  90.2019 269.9275 13.17649351138454
ONEWEB-0533             
1 55141U 23004B   25311.68351711  .00000503  00000+0  13631-2 0  9992
2 55141  87.8972  34.6668 0001625 107.3562 252.7745 13.12445130139009
ONEWEB-0541             
1 55142U 23004C   25312.07426479  .00000580  00000+0  16002-2 0  9991
2 55142  87.8860  65.0786 0001621  96.1060 264.0252 13.11418734136969
ONEWEB-0543             
1 55143U 23004D   25312.13557461  .00000131  00000+0  30036-3 0  9991
2 55143  87.9200  19.4043 0001964 105.9724 254.1625 13.18687673140566
ONEWEB-0544             
1 55144U 23004E   25312.12897624  .00000098  00000+0  21522-3 0  9991
2 55144  87.9203  19.3962 0002065 101.8437 258.2927 13.18687984140563
ONEWEB-0560             
1 55145U 23004F   25312.19825711  .00000076  00000+0  15919-3 0  9996
2 55145  87.9216  19.3668 0002111 100.5936 259.5434 13.18687666140589
ONEWEB-0565             
1 55146U 23004G   25312.19165623  .00000127  00000+0  28856-3 0  9997
2 55146  87.9206  19.4177 0002088  87.0303 273.1068 13.18688127140572
ONEWEB-0567             
1 55147U 23004H   25312.18505794  .00000053  00000+0  10151-3 0  9991
2 55147  87.9214  19.3828 0002109  91.8906 268.2468 13.18687999140575
ONEWEB-0569             
1 55148U 23004J   25312.16926904 -.00000150  00000+0 -44600-3 0  9996
2 55148  87.9022   4.1331 0002809  92.4665 267.6786 13.13468686141167
ONEWEB-0570             
1 55149U 23004K   25311.94752192  .00001366  00000+0  34311-2 0  9993
2 55149  87.9203  19.4294 0001530  83.1458 276.9849 13.18696634140537
ONEWEB-0571             
1 55150U 23004L   25312.16856411  .00000115  00000+0  25771-3 0  9991
2 55150  87.9206  19.3877 0002842  80.9823 279.1631 13.18685073140579
