[{"OBJECT_NAME":"ONEWEB-0615","OBJECT_ID":"2022-166AL","EPOCH":"2025-11-07T23:46:40.393056","MEAN_MOTION":13.21826837,"ECCENTRICITY":0.0001855,"INCLINATION":87.9175,"RA_OF_ASC_NODE":288.1156,"ARG_OF_PERICENTER":86.7434,"MEAN_ANOMALY":273.3912,"EPHEMERIS_TYPE":0,"CLASSIFICATION_TYPE":"U","NORAD_CAT_ID":54676,"ELEMENT_SET_NO":999,"REV_AT_EPOCH":14222,"BSTAR":-0.00016789,"MEAN_MOTION_DOT":-5.6e-7,"MEAN_MOTION_DDOT":0},{"OBJECT_NAME":"ONEWEB-0655","OBJECT_ID":"2022-166AM","EPOCH":"2025-11-08T04:38:09.214080","MEAN_MOTION":13.2182887,"ECCENTRICITY":0.0001836,"INCLINATION":87.9176,"RA_OF_ASC_NODE":288.08,"ARG_OF_PERICENTER":94.3966,"MEAN_ANOMALY":265.7378,"EPHEMERIS_TYPE":0,"CLASSIFICATION_TYPE":"U","NORAD_CAT_ID":54677,"ELEMENT_SET_NO":999,"REV_AT_EPOCH":14224,"BSTAR":0.00019161,"MEAN_MOTION_DOT":9.2e-7,"MEAN_MOTION_DDOT":0},{"OBJECT_NAME":"ONEWEB-0659","OBJECT_ID":"2022-166AN","EPOCH":"2025-11-07T23:34:51.735936","MEAN_MOTION":13.21827044,"ECCENTRICITY":0.0001955,"INCLINATION":87.9176,"RA_OF_ASC_NODE":288.1222,"ARG_OF_PERICENTER":82.6305,"MEAN_ANOMALY":277.5051,"EPHEMERIS_TYPE":0,"CLASSIFICATION_TYPE":"U","NORAD_CAT_ID":54678,"ELEMENT_SET_NO":999,"REV_AT_EPOCH":14230,"BSTAR":7.0253e-5,"MEAN_MOTION_DOT":4.2e-7,"MEAN_MOTION_DDOT":0},{"OBJECT_NAME":"ONEWEB-0685","OBJECT_ID":"2022-166AP","EPOCH":"2025-11-07T23:35:48.738336","MEAN_MOTION":13.2183235,"ECCENTRICITY":0.0001679,"INCLINATION":87.9175,"RA_OF_ASC_NODE":288.1179,"ARG_OF_PERICENTER":87.3814,"MEAN_ANOMALY":272.7512,"EPHEMERIS_TYPE":0,"CLASSIFICATION_TYPE":"U","NORAD_CAT_ID":54679,"ELEMENT_SET_NO":999,"REV_AT_EPOCH":14219,"BSTAR":1.3422e-5,"MEAN_MOTION_DOT":1.9e-7,"MEAN_MOTION_DDOT":0},{"OBJECT_NAME":"ONEWEB-0712","OBJECT_ID":"2022-166AQ","EPOCH":"2025-11-08T03:17:03.047712","MEAN_MOTION":13.16596923,"ECCENTRICITY":0.000199,"INCLINATION":87.9013,"RA_OF_ASC_NODE":272.7945,"ARG_OF_PERICENTER":98.8094,"MEAN_ANOMALY":261.3262,"EPHEMERIS_TYPE":0,"CLASSIFICATION_TYPE":"U","NORAD_CAT_ID":54680,"ELEMENT_SET_NO":999,"REV_AT_EPOCH":14297,"BSTAR":6.3073e-6,"MEAN_MOTION_DOT":1.5e-7,"MEAN_MOTION_DDOT":0},{"OBJECT_NAME":"ONEWEB-0714","OBJECT_ID":"2022-166AR","EPOCH":"2025-11-07T23:44:18.125952","MEAN_MOTION":13.21826073,"ECCENTRICITY":0.0001739,"INCLINATION":87.918,"RA_OF_ASC_NODE":288.1107,"ARG_OF_PERICENTER":90.6533,"MEAN_ANOMALY":269.48,"EPHEMERIS_TYPE":0,"CLASSIFICATION_TYPE":"U","NORAD_CAT_ID":54681,"ELEMENT_SET_NO":999,"REV_AT_EPOCH":14231,"BSTAR":-0.00055412,"MEAN_MOTION_DOT":-2.16e-6,"MEAN_MOTION_DDOT":0},{"OBJECT_NAME":"ONEWEB-0532","OBJECT_ID":"2023-004A","EPOCH":"2025-11-07T23:35:43.581120","MEAN_MOTION":13.17649351,"ECCENTRICITY":0.0001417,"INCLINATION":87.9143,"RA_OF_ASC_NODE":49.8441,"ARG_OF_PERICENTER":90.2019,"MEAN_ANOMALY":269.9275,"EPHEMERIS_TYPE":0,"CLASSIFICATION_TYPE":"U","NORAD_CAT_ID":55140,"ELEMENT_SET_NO":999,"REV_AT_EPOCH":13845,"BSTAR":3.0562e-5,"MEAN_MOTION_DOT":2.5e-7,"MEAN_MOTION_DDOT":0},{"OBJECT_NAME":"ONEWEB-0533","OBJECT_ID":"2023-004B","EPOCH":"2025-11-07T16:24:15.878304","MEAN_MOTION":13.1244513,"ECCENTRICITY":0.0001625,"INCLINATION":87.8972,"RA_OF_ASC_NODE":34.6668,"ARG_OF_PERICENTER":107.3562,"MEAN_ANOMALY":252.7745,"EPHEMERIS_TYPE":0,"CLASSIFICATION_TYPE":"U","NORAD_CAT_ID":55141,"ELEMENT_SET_NO":999,"REV_AT_EPOCH":13900,"BSTAR":0.0013631,"MEAN_MOTION_DOT":5.03e-6,"MEAN_MOTION_DDOT":0},{"OBJECT_NAME":"ONEWEB-0541","OBJECT_ID":"2023-004C","EPOCH":"2025-11-08T01:46:56.477856","MEAN_MOTION":13.11418734,"ECCENTRICITY":0.0001621,"INCLINATION":87.886,"RA_OF_ASC_NODE":65.0786,"ARG_OF_PERICENTER":96.106,"MEAN_ANOMALY":264.0252,"EPHEMERIS_TYPE":0,"CLASSIFICATION_TYPE":"U","NORAD_CAT_ID":55142,"ELEMENT_SET_NO":999,"REV_AT_EPOCH":13696,"BSTAR":0.0016002,"MEAN_MOTION_DOT":5.8e-6,"MEAN_MOTION_DDOT":0},{"OBJECT_NAME":"ONEWEB-0543","OBJECT_ID":"2023-004D","EPOCH":"2025-11-08T03:15:13.646304","MEAN_MOTION":13.18687673,"ECCENTRICITY":0.0001964,"INCLINATION":87.92,"RA_OF_ASC_NODE":19.4043,"ARG_OF_PERICENTER":105.9724,"MEAN_ANOMALY":254.1625,"EPHEMERIS_TYPE":0,"CLASSIFICATION_TYPE":"U","NORAD_CAT_ID":55143,"ELEMENT_SET_NO":999,"REV_AT_EPOCH":14056,"BSTAR":0.00030036,"MEAN_MOTION_DOT":1.31e-6,"MEAN_MOTION_DDOT":0},{"OBJECT_NAME":"ONEWEB-0544","OBJECT_ID":"2023-004E","EPOCH":"2025-11-08T03:05:43.547136","MEAN_MOTION":13.18687984,"ECCENTRICITY":0.0002065,"INCLINATION":87.9203,"RA_OF_ASC_NODE":19.3962,"ARG_OF_PERICENTER":101.8437,"MEAN_ANOMALY":258.2927,"EPHEMERIS_TYPE":0,"CLASSIFICATION_TYPE":"U","NORAD_CAT_ID":55144,"ELEMENT_SET_NO":999,"REV_AT_EPOCH":14056,"BSTAR":0.00021522,"MEAN_MOTION_DOT":9.8e-7,"MEAN_MOTION_DDOT":0},{"OBJECT_NAME":"ONEWEB-0560","OBJECT_ID":"2023-004F","EPOCH":"2025-11-08T04:45:29.414304","MEAN_MOTION":13.18687666,"ECCENTRICITY":0.0002111,"INCLINATION":87.9216,"RA_OF_ASC_NODE":19.3668,"ARG_OF_PERICENTER":100.5936,"MEAN_ANOMALY":259.5434,"EPHEMERIS_TYPE":0,"CLASSIFICATION_TYPE":"U","NORAD_CAT_ID":55145,"ELEMENT_SET_NO":999,"REV_AT_EPOCH":14058,"BSTAR":0.00015919,"MEAN_MOTION_DOT":7.6e-7,"MEAN_MOTION_DDOT":0},{"OBJECT_NAME":"ONEWEB-0565","OBJECT_ID":"2023-004G","EPOCH":"2025-11-08T04:35:59.098272","MEAN_MOTION":13.18688127,"ECCENTRICITY":0.0002088,"INCLINATION":87.9206,"RA_OF_ASC_NODE":19.4177,"ARG_OF_PERICENTER":87.0303,"MEAN_ANOMALY":273.1068,"EPHEMERIS_TYPE":0,"CLASSIFICATION_TYPE":"U","NORAD_CAT_ID":55146,"ELEMENT_SET_NO":999,"REV_AT_EPOCH":14057,"BSTAR":0.00028856,"MEAN_MOTION_DOT":1.27e-6,"MEAN_MOTION_DDOT":0},{"OBJECT_NAME":"ONEWEB-0567","OBJECT_ID":"2023-004H","EPOCH":"2025-11-08T04:26:29.006016","MEAN_MOTION":13.18687999,"ECCENTRICITY":0.0002109,"INCLINATION":87.9214,"RA_OF_ASC_NODE":19.3828,"ARG_OF_PERICENTER":91.8906,"MEAN_ANOMALY":268.2468,"EPHEMERIS_TYPE":0,"CLASSIFICATION_TYPE":"U","NORAD_CAT_ID":55147,"ELEMENT_SET_NO":999,"REV_AT_EPOCH":14057,"BSTAR":0.00010151,"MEAN_MOTION_DOT":5.3e-7,"MEAN_MOTION_DDOT":0},{"OBJECT_NAME":"ONEWEB-0569","OBJECT_ID":"2023-004J","EPOCH":"2025-11-08T04:03:44.845056","MEAN_MOTION":13.13468686,"ECCENTRICITY":0.0002809,"INCLINATION":87.9022,"RA_OF_ASC_NODE":4.1331,"ARG_OF_PERICENTER":92.4665,"MEAN_ANOMALY":267.6786,"EPHEMERIS_TYPE":0,"CLASSIFICATION_TYPE":"U","NORAD_CAT_ID":55148,"ELEMENT_SET_NO":999,"REV_AT_EPOCH":14116,"BSTAR":-0.000446,"MEAN_MOTION_DOT":-1.5e-6,"MEAN_MOTION_DDOT":0},{"OBJECT_NAME":"ONEWEB-0570","OBJECT_ID":"2023-004K","EPOCH":"2025-11-07T22:44:25.893888","MEAN_MOTION":13.18696634,"ECCENTRICITY":0.000153,"INCLINATION":87.9203,"RA_OF_ASC_NODE":19.4294,"ARG_OF_PERICENTER":83.1458,"MEAN_ANOMALY":276.9849,"EPHEMERIS_TYPE":0,"CLASSIFICATION_TYPE":"U","NORAD_CAT_ID":55149,"ELEMENT_SET_NO":999,"REV_AT_EPOCH":14053,"BSTAR":0.0034311,"MEAN_MOTION_DOT":1.366e-5,"MEAN_MOTION_DDOT":0},{"OBJECT_NAME":"ONEWEB-0571","OBJECT_ID":"2023-004L","EPOCH":"2025-11-08T04:02:43.939104","MEAN_MOTION":13.18685073,"ECCENTRICITY":0.0002842,"INCLINATION":87.9206,"RA_OF_ASC_NODE":19.3877,"ARG_OF_PERICENTER":80.9823,"MEAN_ANOMALY":279.1631,"EPHEMERIS_TYPE":0,"CLASSIFICATION_TYPE":"U","NORAD_CAT_ID":55150,"ELEMENT_SET_NO":999,"REV_AT_EPOCH":14057,"BSTAR":0.00025771,"MEAN_MOTION_DOT":1.15e-6,"MEAN_MOTION_DDOT":0}]
